{"fetched_at":"2026-03-29T16:36:15Z","count":15609,"tles":[{"name":"STARLINK-35346","line1":"1 66179U 25243C   26087.90436244  .00031163  00000+0  10593-2 0  9993","line2":"2 66179  53.1608 156.1404 0001552  84.7578 275.3600 15.30217901 23598","category":"Starlink"}]}